UNKNOWN                 
1 87300U          25342.21731770  .00002715  00000+0  18942-2 0  9992
2 87300 100.0855 324.2212 0028913 304.5535  55.2897 13.99405992612481
UNKNOWN                 
1 87304U          25347.25530716  .00003614  00000+0  53488-3 0  9996
2 87304  74.0197 319.9405 0019467 287.7335  72.1714 14.75435041646557
UNKNOWN                 
1 87320U          25348.34226284  .00001193  00000+0  78296-3 0  9991
2 87320  66.5943  80.4532 0415114  53.7588 310.1101 13.70057837593969
UNKNOWN                 
1 87334U          25348.26860775  .00023479  00000+0  13834-1 0  9992
2 87334  89.9931 271.7131 0061984 252.0847 107.3572 14.06810135386869
UNKNOWN                 
1 87335U          25348.28013155  .00020923  00000+0  12140-1 0  9997
2 87335  89.9771 268.0170 0073523 223.6004 135.9355 14.07271967387193
UNKNOWN                 
1 87405U          25346.49831434  .00003094  00000+0  22046-2 0  9991
2 87405  82.7504  60.3116 0056567 331.1786  28.6260 13.96356133611122
UNKNOWN                 
1 87426U          25348.39942896  .00006621  00000+0  25431-2 0  9990
2 87426  65.7846 330.0540 0070490 290.7474 220.7320 14.29669562622829
UNKNOWN                 
1 87448U          25348.02204747  .00001899  00000+0  15427-2 0  9996
2 87448 100.4517 194.7019 0062722 201.6018 158.2488 13.90608108609411
UNKNOWN                 
1 87456U          25347.57196331  .00005689  00000+0  85720-3 0  9998
2 87456  65.7812  88.7898 0510781   4.5225 356.0215 14.13484514611611
UNKNOWN                 
1 87517U          25342.02668627  .00003636  00000+0  10212-2 0  9996
2 87517  65.8238 244.3077 0674819 308.6919  63.5860 13.61226401592279
UNKNOWN                 
1 87541U          25341.55037037  .00000340  00000+0  74449-3 0  9997
2 87541  99.6998 195.7254 0059473 275.6633 112.5958 13.35589670581349
UNKNOWN                 
1 87553U          25343.35233996  .00005394  00000+0  16234-2 0  9993
2 87553  65.6706   4.0727 0700804 229.0157 124.8228 13.53461524590796
