CCSDS_OMM_VERS = 2.0
CREATION_DATE  = 
ORIGINATOR     = 

OBJECT_NAME    = UNKNOWN
OBJECT_ID      = 
CENTER_NAME    = EARTH
REF_FRAME      = TEME
TIME_SYSTEM    = UTC
MEAN_ELEMENT_THEORY = SGP/SGP4

EPOCH          = 2025-12-08T05:12:56.249280
MEAN_MOTION    = 13.99405992
ECCENTRICITY   = .0028913
INCLINATION    = 100.0855
RA_OF_ASC_NODE = 324.2212
ARG_OF_PERICENTER = 304.5535
MEAN_ANOMALY   = 55.2897

EPHEMERIS_TYPE = 0
CLASSIFICATION_TYPE = U
NORAD_CAT_ID   = 87300
ELEMENT_SET_NO = 999
REV_AT_EPOCH   = 61248
BSTAR          = .18942E-2
MEAN_MOTION_DOT = .2715E-4
MEAN_MOTION_DDOT = 0

CCSDS_OMM_VERS = 2.0
CREATION_DATE  = 
ORIGINATOR     = 

OBJECT_NAME    = UNKNOWN
OBJECT_ID      = 
CENTER_NAME    = EARTH
REF_FRAME      = TEME
TIME_SYSTEM    = UTC
MEAN_ELEMENT_THEORY = SGP/SGP4

EPOCH          = 2025-12-13T06:07:38.538624
MEAN_MOTION    = 14.75435041
ECCENTRICITY   = .0019467
INCLINATION    = 74.0197
RA_OF_ASC_NODE = 319.9405
ARG_OF_PERICENTER = 287.7335
MEAN_ANOMALY   = 72.1714

EPHEMERIS_TYPE = 0
CLASSIFICATION_TYPE = U
NORAD_CAT_ID   = 87304
ELEMENT_SET_NO = 999
REV_AT_EPOCH   = 64655
BSTAR          = .53488E-3
MEAN_MOTION_DOT = .3614E-4
MEAN_MOTION_DDOT = 0

CCSDS_OMM_VERS = 2.0
CREATION_DATE  = 
ORIGINATOR     = 

OBJECT_NAME    = UNKNOWN
OBJECT_ID      = 
CENTER_NAME    = EARTH
REF_FRAME      = TEME
TIME_SYSTEM    = UTC
MEAN_ELEMENT_THEORY = SGP/SGP4

EPOCH          = 2025-12-14T08:12:51.509376
MEAN_MOTION    = 13.70057837
ECCENTRICITY   = .0415114
INCLINATION    = 66.5943
RA_OF_ASC_NODE = 80.4532
ARG_OF_PERICENTER = 53.7588
MEAN_ANOMALY   = 310.1101

EPHEMERIS_TYPE = 0
CLASSIFICATION_TYPE = U
NORAD_CAT_ID   = 87320
ELEMENT_SET_NO = 999
REV_AT_EPOCH   = 59396
BSTAR          = .78296E-3
MEAN_MOTION_DOT = .1193E-4
MEAN_MOTION_DDOT = 0

CCSDS_OMM_VERS = 2.0
CREATION_DATE  = 
ORIGINATOR     = 

OBJECT_NAME    = UNKNOWN
OBJECT_ID      = 
CENTER_NAME    = EARTH
REF_FRAME      = TEME
TIME_SYSTEM    = UTC
MEAN_ELEMENT_THEORY = SGP/SGP4

EPOCH          = 2025-12-14T06:26:47.709600
MEAN_MOTION    = 14.06810135
ECCENTRICITY   = .0061984
INCLINATION    = 89.9931
RA_OF_ASC_NODE = 271.7131
ARG_OF_PERICENTER = 252.0847
MEAN_ANOMALY   = 107.3572

EPHEMERIS_TYPE = 0
CLASSIFICATION_TYPE = U
NORAD_CAT_ID   = 87334
ELEMENT_SET_NO = 999
REV_AT_EPOCH   = 38686
BSTAR          = .13834E-1
MEAN_MOTION_DOT = .23479E-3
MEAN_MOTION_DDOT = 0

CCSDS_OMM_VERS = 2.0
CREATION_DATE  = 
ORIGINATOR     = 

OBJECT_NAME    = UNKNOWN
OBJECT_ID      = 
CENTER_NAME    = EARTH
REF_FRAME      = TEME
TIME_SYSTEM    = UTC
MEAN_ELEMENT_THEORY = SGP/SGP4

EPOCH          = 2025-12-14T06:43:23.365920
MEAN_MOTION    = 14.07271967
ECCENTRICITY   = .0073523
INCLINATION    = 89.9771
RA_OF_ASC_NODE = 268.0170
ARG_OF_PERICENTER = 223.6004
MEAN_ANOMALY   = 135.9355

EPHEMERIS_TYPE = 0
CLASSIFICATION_TYPE = U
NORAD_CAT_ID   = 87335
ELEMENT_SET_NO = 999
REV_AT_EPOCH   = 38719
BSTAR          = .1214E-1
MEAN_MOTION_DOT = .20923E-3
MEAN_MOTION_DDOT = 0

CCSDS_OMM_VERS = 2.0
CREATION_DATE  = 
ORIGINATOR     = 

OBJECT_NAME    = UNKNOWN
OBJECT_ID      = 
CENTER_NAME    = EARTH
REF_FRAME      = TEME
TIME_SYSTEM    = UTC
MEAN_ELEMENT_THEORY = SGP/SGP4

EPOCH          = 2025-12-12T11:57:34.358976
MEAN_MOTION    = 13.96356133
ECCENTRICITY   = .0056567
INCLINATION    = 82.7504
RA_OF_ASC_NODE = 60.3116
ARG_OF_PERICENTER = 331.1786
MEAN_ANOMALY   = 28.6260

EPHEMERIS_TYPE = 0
CLASSIFICATION_TYPE = U
NORAD_CAT_ID   = 87405
ELEMENT_SET_NO = 999
REV_AT_EPOCH   = 61112
BSTAR          = .22046E-2
MEAN_MOTION_DOT = .3094E-4
MEAN_MOTION_DDOT = 0

CCSDS_OMM_VERS = 2.0
CREATION_DATE  = 
ORIGINATOR     = 

OBJECT_NAME    = UNKNOWN
OBJECT_ID      = 
CENTER_NAME    = EARTH
REF_FRAME      = TEME
TIME_SYSTEM    = UTC
MEAN_ELEMENT_THEORY = SGP/SGP4

EPOCH          = 2025-12-14T09:35:10.662144
MEAN_MOTION    = 14.29669562
ECCENTRICITY   = .007049
INCLINATION    = 65.7846
RA_OF_ASC_NODE = 330.0540
ARG_OF_PERICENTER = 290.7474
MEAN_ANOMALY   = 220.7320

EPHEMERIS_TYPE = 0
CLASSIFICATION_TYPE = U
NORAD_CAT_ID   = 87426
ELEMENT_SET_NO = 999
REV_AT_EPOCH   = 62282
BSTAR          = .25431E-2
MEAN_MOTION_DOT = .6621E-4
MEAN_MOTION_DDOT = 0

CCSDS_OMM_VERS = 2.0
CREATION_DATE  = 
ORIGINATOR     = 

OBJECT_NAME    = UNKNOWN
OBJECT_ID      = 
CENTER_NAME    = EARTH
REF_FRAME      = TEME
TIME_SYSTEM    = UTC
MEAN_ELEMENT_THEORY = SGP/SGP4

EPOCH          = 2025-12-14T00:31:44.901408
MEAN_MOTION    = 13.90608108
ECCENTRICITY   = .0062722
INCLINATION    = 100.4517
RA_OF_ASC_NODE = 194.7019
ARG_OF_PERICENTER = 201.6018
MEAN_ANOMALY   = 158.2488

EPHEMERIS_TYPE = 0
CLASSIFICATION_TYPE = U
NORAD_CAT_ID   = 87448
ELEMENT_SET_NO = 999
REV_AT_EPOCH   = 60941
BSTAR          = .15427E-2
MEAN_MOTION_DOT = .1899E-4
MEAN_MOTION_DDOT = 0

CCSDS_OMM_VERS = 2.0
CREATION_DATE  = 
ORIGINATOR     = 

OBJECT_NAME    = UNKNOWN
OBJECT_ID      = 
CENTER_NAME    = EARTH
REF_FRAME      = TEME
TIME_SYSTEM    = UTC
MEAN_ELEMENT_THEORY = SGP/SGP4

EPOCH          = 2025-12-13T13:43:37.629984
MEAN_MOTION    = 14.13484514
ECCENTRICITY   = .0510781
INCLINATION    = 65.7812
RA_OF_ASC_NODE = 88.7898
ARG_OF_PERICENTER = 4.5225
MEAN_ANOMALY   = 356.0215

EPHEMERIS_TYPE = 0
CLASSIFICATION_TYPE = U
NORAD_CAT_ID   = 87456
ELEMENT_SET_NO = 999
REV_AT_EPOCH   = 61161
BSTAR          = .8572E-3
MEAN_MOTION_DOT = .5689E-4
MEAN_MOTION_DDOT = 0

CCSDS_OMM_VERS = 2.0
CREATION_DATE  = 
ORIGINATOR     = 

OBJECT_NAME    = UNKNOWN
OBJECT_ID      = 
CENTER_NAME    = EARTH
REF_FRAME      = TEME
TIME_SYSTEM    = UTC
MEAN_ELEMENT_THEORY = SGP/SGP4

EPOCH          = 2025-12-08T00:38:25.693728
MEAN_MOTION    = 13.61226401
ECCENTRICITY   = .0674819
INCLINATION    = 65.8238
RA_OF_ASC_NODE = 244.3077
ARG_OF_PERICENTER = 308.6919
MEAN_ANOMALY   = 63.5860

EPHEMERIS_TYPE = 0
CLASSIFICATION_TYPE = U
NORAD_CAT_ID   = 87517
ELEMENT_SET_NO = 999
REV_AT_EPOCH   = 59227
BSTAR          = .10212E-2
MEAN_MOTION_DOT = .3636E-4
MEAN_MOTION_DDOT = 0

CCSDS_OMM_VERS = 2.0
CREATION_DATE  = 
ORIGINATOR     = 

OBJECT_NAME    = UNKNOWN
OBJECT_ID      = 
CENTER_NAME    = EARTH
REF_FRAME      = TEME
TIME_SYSTEM    = UTC
MEAN_ELEMENT_THEORY = SGP/SGP4

EPOCH          = 2025-12-07T13:12:31.999968
MEAN_MOTION    = 13.35589670
ECCENTRICITY   = .0059473
INCLINATION    = 99.6998
RA_OF_ASC_NODE = 195.7254
ARG_OF_PERICENTER = 275.6633
MEAN_ANOMALY   = 112.5958

EPHEMERIS_TYPE = 0
CLASSIFICATION_TYPE = U
NORAD_CAT_ID   = 87541
ELEMENT_SET_NO = 999
REV_AT_EPOCH   = 58134
BSTAR          = .74449E-3
MEAN_MOTION_DOT = .34E-5
MEAN_MOTION_DDOT = 0

CCSDS_OMM_VERS = 2.0
CREATION_DATE  = 
ORIGINATOR     = 

OBJECT_NAME    = UNKNOWN
OBJECT_ID      = 
CENTER_NAME    = EARTH
REF_FRAME      = TEME
TIME_SYSTEM    = UTC
MEAN_ELEMENT_THEORY = SGP/SGP4

EPOCH          = 2025-12-09T08:27:22.172544
MEAN_MOTION    = 13.53461524
ECCENTRICITY   = .0700804
INCLINATION    = 65.6706
RA_OF_ASC_NODE = 4.0727
ARG_OF_PERICENTER = 229.0157
MEAN_ANOMALY   = 124.8228

EPHEMERIS_TYPE = 0
CLASSIFICATION_TYPE = U
NORAD_CAT_ID   = 87553
ELEMENT_SET_NO = 999
REV_AT_EPOCH   = 59079
BSTAR          = .16234E-2
MEAN_MOTION_DOT = .5394E-4
MEAN_MOTION_DDOT = 0

